TIANMU-1 07             
1 57399U 23101A   26065.57454230  .00008352  00000+0  29795-3 0  9991
2 57399  97.2728 118.5929 0004609 142.4105 217.7458 15.29118809145964
STARLINK-34276          
1 64263U 25120H   26068.40011151  .00015066  00000+0  51971-3 0  9999
2 64263  53.1586 117.9046 0001203  90.2666 269.8472 15.30204066 43871
